EOSSAT-1                
1 55053U 23001AW  26068.73619225  .00007695  00000+0  24844-3 0  9992
2 55053  97.3357 130.2294 0011263 110.3168 249.9285 15.32339828176689
STARLINK-35613          
1 66097U 25236M   26068.47329239  .00024034  00000+0  82088-3 0  9998
2 66097  53.1589 104.7240 0001211  91.1410 268.9729 15.30202761 22914
